ONEWEB-0704             
1 61609U 24188R   26064.45231532 -.00000348  00000+0 -10341-2 0  9995
2 61609  87.8784  56.8950 0002862  88.3747 271.7709 13.10371069 69700
ONEWEB-0705             
1 61610U 24188S   26064.53364595 -.00000525  00000+0 -15408-2 0  9998
2 61610  87.8774  56.8924 0002632  66.2445 293.8958 13.10371041 61889
ONEWEB-0706             
1 61611U 24188T   26064.51871699  .00000191  00000+0  51126-3 0  9990
2 61611  87.8766  56.9078 0002469  84.7209 275.4199 13.10369834 69803
ONEWEB-0707             
1 61612U 24188U   26064.75442376 -.00000183  00000+0 -55961-3 0  9997
2 61612  87.8774  56.8479 0002459  84.9597 275.1811 13.10369265 69770
ONEWEB-0708             
1 61613U 24188V   26064.54359779 -.00000725  00000+0 -21145-2 0  9997
2 61613  87.8767  56.9184 0001959  69.5482 290.5855 13.10373428 69723
