[{"OBJECT_NAME":"ONEWEB-0704","OBJECT_ID":"2024-188R","EPOCH":"2026-03-05T10:51:20.043648","MEAN_MOTION":13.10371069,"ECCENTRICITY":0.0002862,"INCLINATION":87.8784,"RA_OF_ASC_NODE":56.895,"ARG_OF_PERICENTER":88.3747,"MEAN_ANOMALY":271.7709,"EPHEMERIS_TYPE":0,"CLASSIFICATION_TYPE":"U","NORAD_CAT_ID":61609,"ELEMENT_SET_NO":999,"REV_AT_EPOCH":6970,"BSTAR":-0.0010341,"MEAN_MOTION_DOT":-3.48e-6,"MEAN_MOTION_DDOT":0},{"OBJECT_NAME":"ONEWEB-0705","OBJECT_ID":"2024-188S","EPOCH":"2026-03-05T12:48:27.010080","MEAN_MOTION":13.10371041,"ECCENTRICITY":0.0002632,"INCLINATION":87.8774,"RA_OF_ASC_NODE":56.8924,"ARG_OF_PERICENTER":66.2445,"MEAN_ANOMALY":293.8958,"EPHEMERIS_TYPE":0,"CLASSIFICATION_TYPE":"U","NORAD_CAT_ID":61610,"ELEMENT_SET_NO":999,"REV_AT_EPOCH":6188,"BSTAR":-0.0015408,"MEAN_MOTION_DOT":-5.25e-6,"MEAN_MOTION_DDOT":0},{"OBJECT_NAME":"ONEWEB-0706","OBJECT_ID":"2024-188T","EPOCH":"2026-03-05T12:26:57.147936","MEAN_MOTION":13.10369834,"ECCENTRICITY":0.0002469,"INCLINATION":87.8766,"RA_OF_ASC_NODE":56.9078,"ARG_OF_PERICENTER":84.7209,"MEAN_ANOMALY":275.4199,"EPHEMERIS_TYPE":0,"CLASSIFICATION_TYPE":"U","NORAD_CAT_ID":61611,"ELEMENT_SET_NO":999,"REV_AT_EPOCH":6980,"BSTAR":0.00051126,"MEAN_MOTION_DOT":1.91e-6,"MEAN_MOTION_DDOT":0},{"OBJECT_NAME":"ONEWEB-0707","OBJECT_ID":"2024-188U","EPOCH":"2026-03-05T18:06:22.212864","MEAN_MOTION":13.10369265,"ECCENTRICITY":0.0002459,"INCLINATION":87.8774,"RA_OF_ASC_NODE":56.8479,"ARG_OF_PERICENTER":84.9597,"MEAN_ANOMALY":275.1811,"EPHEMERIS_TYPE":0,"CLASSIFICATION_TYPE":"U","NORAD_CAT_ID":61612,"ELEMENT_SET_NO":999,"REV_AT_EPOCH":6977,"BSTAR":-0.00055961,"MEAN_MOTION_DOT":-1.83e-6,"MEAN_MOTION_DDOT":0},{"OBJECT_NAME":"ONEWEB-0708","OBJECT_ID":"2024-188V","EPOCH":"2026-03-05T13:02:46.849056","MEAN_MOTION":13.10373428,"ECCENTRICITY":0.0001959,"INCLINATION":87.8767,"RA_OF_ASC_NODE":56.9184,"ARG_OF_PERICENTER":69.5482,"MEAN_ANOMALY":290.5855,"EPHEMERIS_TYPE":0,"CLASSIFICATION_TYPE":"U","NORAD_CAT_ID":61613,"ELEMENT_SET_NO":999,"REV_AT_EPOCH":6972,"BSTAR":-0.0021145,"MEAN_MOTION_DOT":-7.25e-6,"MEAN_MOTION_DDOT":0}]
